{
  "type": "FeatureCollection",
  "features": [
    {
      "type": "Feature",
      "properties": {
        "norad_id": 33901,
        "name": "COSMOS 2251 DEB",
        "group": "cosmos-2251-debris",
        "lat": -0.07248793558978142,
        "lon": -112.70788524718726,
        "alt_km": 502.9926648360333,
        "timestamp": "2025-12-04T05:42:43.764979+00:00",
        "meta_object_name": "COSMOS 2251 DEB",
        "meta_object_id": "1993-036DE",
        "meta_epoch": "2025-12-03T22:34:35.927040",
        "meta_mean_motion": 15.14259007,
        "meta_eccentricity": 0.00348875,
        "meta_inclination": 73.773,
        "meta_ra_of_asc_node": 67.8984,
        "meta_arg_of_pericenter": 200.0074,
        "meta_mean_anomaly": 159.9754,
        "meta_ephemeris_type": 0,
        "meta_classification_type": "U",
        "meta_norad_cat_id": 33901,
        "meta_element_set_no": 999,
        "meta_rev_at_epoch": 89380,
        "meta_bstar": 0.0067583088,
        "meta_mean_motion_dot": 0.00127634,
        "meta_mean_motion_ddot": 0,
        "tle_line1": "1 33901U 93036DE  25337.94069360  .00127634  00000+0  67583-2 0  9997",
        "tle_line2": "2 33901  73.7730  67.8984 0034887 200.0074 159.9754 15.14259007893802"
      },
      "geometry": {
        "type": "Point",
        "coordinates": [
          -112.70788524718726,
          -0.07248793558978142
        ]
      }
    },
    {
      "type": "Feature",
      "properties": {
        "norad_id": 33905,
        "name": "COSMOS 2251 DEB",
        "group": "cosmos-2251-debris",
        "lat": 2.59133301441867,
        "lon": 151.6308685159831,
        "alt_km": 746.7095357567232,
        "timestamp": "2025-12-04T05:42:43.764989+00:00",
        "meta_object_name": "COSMOS 2251 DEB",
        "meta_object_id": "1993-036DJ",
        "meta_epoch": "2025-12-03T18:01:11.839872",
        "meta_mean_motion": 14.35327785,
        "meta_eccentricity": 0.00594457,
        "meta_inclination": 73.8867,
        "meta_ra_of_asc_node": 333.2817,
        "meta_arg_of_pericenter": 224.4773,
        "meta_mean_anomaly": 316.8779,
        "meta_ephemeris_type": 0,
        "meta_classification_type": "U",
        "meta_norad_cat_id": 33905,
        "meta_element_set_no": 999,
        "meta_rev_at_epoch": 87558,
        "meta_bstar": 0.0011271362,
        "meta_mean_motion_dot": 3.271e-05,
        "meta_mean_motion_ddot": 0,
        "tle_line1": "1 33905U 93036DJ  25337.75083148  .00003271  00000+0  11271-2 0  9993",
        "tle_line2": "2 33905  73.8867 333.2817 0059445 224.4773 316.8779 14.35327785875583"
      },
      "geometry": {
        "type": "Point",
        "coordinates": [
          151.6308685159831,
          2.59133301441867
        ]
      }
    },
    {
      "type": "Feature",
      "properties": {
        "norad_id": 33906,
        "name": "COSMOS 2251 DEB",
        "group": "cosmos-2251-debris",
        "lat": 54.29600480143859,
        "lon": 134.14638559576744,
        "alt_km": 708.203402217734,
        "timestamp": "2025-12-04T05:42:43.764999+00:00",
        "meta_object_name": "COSMOS 2251 DEB",
        "meta_object_id": "1993-036DK",
        "meta_epoch": "2025-12-03T01:23:23.532000",
        "meta_mean_motion": 14.56802177,
        "meta_eccentricity": 0.00362632,
        "meta_inclination": 74.0306,
        "meta_ra_of_asc_node": 339.8678,
        "meta_arg_of_pericenter": 11.0992,
        "meta_mean_anomaly": 44.3061,
        "meta_ephemeris_type": 0,
        "meta_classification_type": "U",
        "meta_norad_cat_id": 33906,
        "meta_element_set_no": 999,
        "meta_rev_at_epoch": 87867,
        "meta_bstar": 0.0026508773,
        "meta_mean_motion_dot": 0.00011966,
        "meta_mean_motion_ddot": 0,
        "tle_line1": "1 33906U 93036DK  25337.05791125  .00011966  00000+0  26509-2 0  9998",
        "tle_line2": "2 33906  74.0306 339.8678 0036263  11.0992  44.3061 14.56802177878674"
      },
      "geometry": {
        "type": "Point",
        "coordinates": [
          134.14638559576744,
          54.29600480143859
        ]
      }
    },
    {
      "type": "Feature",
      "properties": {
        "norad_id": 33907,
        "name": "COSMOS 2251 DEB",
        "group": "cosmos-2251-debris",
        "lat": -6.717289597759709,
        "lon": -128.97920814694677,
        "alt_km": 778.5526994320844,
        "timestamp": "2025-12-04T05:42:43.765009+00:00",
        "meta_object_name": "COSMOS 2251 DEB",
        "meta_object_id": "1993-036DL",
        "meta_epoch": "2025-12-02T16:29:31.533792",
        "meta_mean_motion": 14.30354915,
        "meta_eccentricity": 0.011318,
        "meta_inclination": 74.0705,
        "meta_ra_of_asc_node": 51.9078,
        "meta_arg_of_pericenter": 110.3545,
        "meta_mean_anomaly": 12.7079,
        "meta_ephemeris_type": 0,
        "meta_classification_type": "U",
        "meta_norad_cat_id": 33907,
        "meta_element_set_no": 999,
        "meta_rev_at_epoch": 86436,
        "meta_bstar": 0.0022180325,
        "meta_mean_motion_dot": 6.159e-05,
        "meta_mean_motion_ddot": 0,
        "tle_line1": "1 33907U 93036DL  25336.68717053  .00006159  00000+0  22180-2 0  9994",
        "tle_line2": "2 33907  74.0705  51.9078 0113180 110.3545  12.7079 14.30354915864368"
      },
      "geometry": {
        "type": "Point",
        "coordinates": [
          -128.97920814694677,
          -6.717289597759709
        ]
      }
    },
    {
      "type": "Feature",
      "properties": {
        "norad_id": 33908,
        "name": "COSMOS 2251 DEB",
        "group": "cosmos-2251-debris",
        "lat": -20.63094212624088,
        "lon": 47.11899399807412,
        "alt_km": 756.0697474602657,
        "timestamp": "2025-12-04T05:42:43.765019+00:00",
        "meta_object_name": "COSMOS 2251 DEB",
        "meta_object_id": "1993-036DM",
        "meta_epoch": "2025-12-03T03:08:46.862016",
        "meta_mean_motion": 14.07226005,
        "meta_eccentricity": 0.02239494,
        "meta_inclination": 73.8384,
        "meta_ra_of_asc_node": 222.8141,
        "meta_arg_of_pericenter": 248.0331,
        "meta_mean_anomaly": 109.6872,
        "meta_ephemeris_type": 0,
        "meta_classification_type": "U",
        "meta_norad_cat_id": 33908,
        "meta_element_set_no": 999,
        "meta_rev_at_epoch": 85338,
        "meta_bstar": 0.0019738327,
        "meta_mean_motion_dot": 4.133e-05,
        "meta_mean_motion_ddot": 0,
        "tle_line1": "1 33908U 93036DM  25337.13109794  .00004133  00000+0  19738-2 0  9998",
        "tle_line2": "2 33908  73.8384 222.8141 0223949 248.0331 109.6872 14.07226005853385"
      },
      "geometry": {
        "type": "Point",
        "coordinates": [
          47.11899399807412,
          -20.63094212624088
        ]
      }
    },
    {
      "type": "Feature",
      "properties": {
        "norad_id": 33911,
        "name": "COSMOS 2251 DEB",
        "group": "cosmos-2251-debris",
        "lat": 66.12179588410447,
        "lon": -141.48009765357173,
        "alt_km": 633.7341931580659,
        "timestamp": "2025-12-04T05:42:43.765030+00:00",
        "meta_object_name": "COSMOS 2251 DEB",
        "meta_object_id": "1993-036DQ",
        "meta_epoch": "2025-12-03T16:53:58.002720",
        "meta_mean_motion": 14.74461944,
        "meta_eccentricity": 0.0014555,
        "meta_inclination": 74.0898,
        "meta_ra_of_asc_node": 179.4419,
        "meta_arg_of_pericenter": 125.4327,
        "meta_mean_anomaly": 354.0884,
        "meta_ephemeris_type": 0,
        "meta_classification_type": "U",
        "meta_norad_cat_id": 33911,
        "meta_element_set_no": 999,
        "meta_rev_at_epoch": 88511,
        "meta_bstar": 0.0025840978,
        "meta_mean_motion_dot": 0.00017211,
        "meta_mean_motion_ddot": 0,
        "tle_line1": "1 33911U 93036DQ  25337.70414355  .00017211  00000+0  25841-2 0  9990",
        "tle_line2": "2 33911  74.0898 179.4419 0014555 125.4327 354.0884 14.74461944885113"
      },
      "geometry": {
        "type": "Point",
        "coordinates": [
          -141.48009765357173,
          66.12179588410447
        ]
      }
    },
    {
      "type": "Feature",
      "properties": {
        "norad_id": 33912,
        "name": "COSMOS 2251 DEB",
        "group": "cosmos-2251-debris",
        "lat": -59.41713694629899,
        "lon": 176.76430851708946,
        "alt_km": 718.4506243609931,
        "timestamp": "2025-12-04T05:42:43.765040+00:00",
        "meta_object_name": "COSMOS 2251 DEB",
        "meta_object_id": "1993-036DR",
        "meta_epoch": "2025-12-03T02:35:30.229728",
        "meta_mean_motion": 14.51806999,
        "meta_eccentricity": 0.00116089,
        "meta_inclination": 74.0338,
        "meta_ra_of_asc_node": 207.8669,
        "meta_arg_of_pericenter": 286.6,
        "meta_mean_anomaly": 226.2064,
        "meta_ephemeris_type": 0,
        "meta_classification_type": "U",
        "meta_norad_cat_id": 33912,
        "meta_element_set_no": 999,
        "meta_rev_at_epoch": 88293,
        "meta_bstar": 0.00093750224,
        "meta_mean_motion_dot": 3.749e-05,
        "meta_mean_motion_ddot": 0,
        "tle_line1": "1 33912U 93036DR  25337.10798877  .00003749  00000+0  93750-3 0  9995",
        "tle_line2": "2 33912  74.0338 207.8669 0011608 286.6000 226.2064 14.51806999882935"
      },
      "geometry": {
        "type": "Point",
        "coordinates": [
          176.76430851708946,
          -59.41713694629899
        ]
      }
    }
  ]
}